STARLINK-35253          
1 65596U 25207E   26088.19498016  .00005892  00000+0  41209-3 0  9991
2 65596  97.6050 157.8471 0000758 110.6671 249.4637 15.05661173 30985
STARLINK-35263          
1 65597U 25207F   26088.17836838  .00005789  00000+0  40498-3 0  9992
2 65597  97.6032 157.8718 0000590 121.8708 238.2576 15.05661652 31193
STARLINK-35248          
1 65598U 25207G   26088.16175960  .00007559  00000+0  52741-3 0  9995
2 65598  97.6018 157.8941 0000655  93.3554 266.7748 15.05659149 31195
STARLINK-35245          
1 65599U 25207H   26088.14515110  .00011775  00000+0  81904-3 0  9997
2 65599  97.6036 157.9173 0000771  89.6066 270.5250 15.05643405 31198
STARLINK-35229          
1 65600U 25207J   26088.20051676  .00006357  00000+0  44427-3 0  9998
2 65600  97.6047 157.8401 0000740 111.9667 248.1638 15.05662188 31198
STARLINK-35234          
1 65601U 25207K   26088.19221361  .00029768  00000+0  20570-2 0  9990
2 65601  97.6049 157.8530 0000980 185.1801 174.9416 15.05680389 31196
STARLINK-35255          
1 65602U 25207L   26088.17559939  .00008399  00000+0  58533-3 0  9992
2 65602  97.6026 157.8753 0000825 111.2007 248.9308 15.05667590 31196
STARLINK-35250          
1 65603U 25207M   26088.15899052  .00009248  00000+0  64407-3 0  9995
2 65603  97.6020 157.8981 0000537 148.9160 211.2099 15.05661948 31192
STARLINK-35251          
1 65604U 25207N   26088.18113619  .00006867  00000+0  47951-3 0  9996
2 65604  97.6031 157.8675 0000737 163.9268 196.1982 15.05662627 31190
STARLINK-35171          
1 65605U 25207P   26088.16729192  .00002453  00000+0  17417-3 0  9995
2 65605  97.6024 157.8862 0000456 121.5849 238.5422 15.05645982 31032
STARLINK-35195          
1 65606U 25207Q   26088.14237552  .00004583  00000+0  32161-3 0  9997
2 65606  97.6038 157.9212 0000476 222.9345 137.1845 15.05655824 31193
STARLINK-35156          
1 65607U 25207R   26088.14789691  .00017398  00000+0  12054-2 0  9990
2 65607  97.6034 157.9140 0000857 140.9931 219.1357 15.05699264 31198
STARLINK-35185          
1 65608U 25207S   26088.17283661  .00013012  00000+0  90352-3 0  9997
2 65608  97.6026 157.8792 0000876 168.5865 191.5382 15.05684124 31195
STARLINK-35053          
1 65609U 25207T   26088.15622179  .00005733  00000+0  40114-3 0  9999
2 65609  97.6022 157.9017 0000583 153.2601 206.8656 15.05656369 31034
STARLINK-35178          
1 65610U 25207U   26088.18389449 -.00011079  00000+0 -76494-3 0  9996
2 65610  97.6038 157.8642 0001299 109.4000 250.7367 15.05644411 31196
STARLINK-35186          
1 65611U 25207V   26088.20605166  .00007351  00000+0  51297-3 0  9997
2 65611  97.6044 157.8357 0000581 220.5845 139.5339 15.05663705 31192
STARLINK-35154          
1 65612U 25207W   26088.15068146  .00005655  00000+0  39570-3 0  9998
2 65612  97.6031 157.9101 0000225 144.5124 215.6118 15.05662719 31035
