[{"OBJECT_NAME":"STARLINK-35253","OBJECT_ID":"2025-207E","EPOCH":"2026-03-29T04:40:46.285824","MEAN_MOTION":15.05661173,"ECCENTRICITY":7.58e-5,"INCLINATION":97.605,"RA_OF_ASC_NODE":157.8471,"ARG_OF_PERICENTER":110.6671,"MEAN_ANOMALY":249.4637,"EPHEMERIS_TYPE":0,"CLASSIFICATION_TYPE":"U","NORAD_CAT_ID":65596,"ELEMENT_SET_NO":999,"REV_AT_EPOCH":3098,"BSTAR":0.00041209,"MEAN_MOTION_DOT":5.892e-5,"MEAN_MOTION_DDOT":0},{"OBJECT_NAME":"STARLINK-35263","OBJECT_ID":"2025-207F","EPOCH":"2026-03-29T04:16:51.028032","MEAN_MOTION":15.05661652,"ECCENTRICITY":5.9e-5,"INCLINATION":97.6032,"RA_OF_ASC_NODE":157.8718,"ARG_OF_PERICENTER":121.8708,"MEAN_ANOMALY":238.2576,"EPHEMERIS_TYPE":0,"CLASSIFICATION_TYPE":"U","NORAD_CAT_ID":65597,"ELEMENT_SET_NO":999,"REV_AT_EPOCH":3119,"BSTAR":0.00040498,"MEAN_MOTION_DOT":5.789e-5,"MEAN_MOTION_DDOT":0},{"OBJECT_NAME":"STARLINK-35248","OBJECT_ID":"2025-207G","EPOCH":"2026-03-29T03:52:56.029440","MEAN_MOTION":15.05659149,"ECCENTRICITY":6.55e-5,"INCLINATION":97.6018,"RA_OF_ASC_NODE":157.8941,"ARG_OF_PERICENTER":93.3554,"MEAN_ANOMALY":266.7748,"EPHEMERIS_TYPE":0,"CLASSIFICATION_TYPE":"U","NORAD_CAT_ID":65598,"ELEMENT_SET_NO":999,"REV_AT_EPOCH":3119,"BSTAR":0.00052741,"MEAN_MOTION_DOT":7.559e-5,"MEAN_MOTION_DDOT":0},{"OBJECT_NAME":"STARLINK-35245","OBJECT_ID":"2025-207H","EPOCH":"2026-03-29T03:29:01.055040","MEAN_MOTION":15.05643405,"ECCENTRICITY":7.71e-5,"INCLINATION":97.6036,"RA_OF_ASC_NODE":157.9173,"ARG_OF_PERICENTER":89.6066,"MEAN_ANOMALY":270.525,"EPHEMERIS_TYPE":0,"CLASSIFICATION_TYPE":"U","NORAD_CAT_ID":65599,"ELEMENT_SET_NO":999,"REV_AT_EPOCH":3119,"BSTAR":0.00081904,"MEAN_MOTION_DOT":0.00011775,"MEAN_MOTION_DDOT":0},{"OBJECT_NAME":"STARLINK-35229","OBJECT_ID":"2025-207J","EPOCH":"2026-03-29T04:48:44.648064","MEAN_MOTION":15.05662188,"ECCENTRICITY":7.4e-5,"INCLINATION":97.6047,"RA_OF_ASC_NODE":157.8401,"ARG_OF_PERICENTER":111.9667,"MEAN_ANOMALY":248.1638,"EPHEMERIS_TYPE":0,"CLASSIFICATION_TYPE":"U","NORAD_CAT_ID":65600,"ELEMENT_SET_NO":999,"REV_AT_EPOCH":3119,"BSTAR":0.00044427,"MEAN_MOTION_DOT":6.357e-5,"MEAN_MOTION_DDOT":0},{"OBJECT_NAME":"STARLINK-35234","OBJECT_ID":"2025-207K","EPOCH":"2026-03-29T04:36:47.255904","MEAN_MOTION":15.05680389,"ECCENTRICITY":9.8e-5,"INCLINATION":97.6049,"RA_OF_ASC_NODE":157.853,"ARG_OF_PERICENTER":185.1801,"MEAN_ANOMALY":174.9416,"EPHEMERIS_TYPE":0,"CLASSIFICATION_TYPE":"U","NORAD_CAT_ID":65601,"ELEMENT_SET_NO":999,"REV_AT_EPOCH":3119,"BSTAR":0.002057,"MEAN_MOTION_DOT":0.00029768,"MEAN_MOTION_DDOT":0},{"OBJECT_NAME":"STARLINK-35255","OBJECT_ID":"2025-207L","EPOCH":"2026-03-29T04:12:51.787296","MEAN_MOTION":15.0566759,"ECCENTRICITY":8.25e-5,"INCLINATION":97.6026,"RA_OF_ASC_NODE":157.8753,"ARG_OF_PERICENTER":111.2007,"MEAN_ANOMALY":248.9308,"EPHEMERIS_TYPE":0,"CLASSIFICATION_TYPE":"U","NORAD_CAT_ID":65602,"ELEMENT_SET_NO":999,"REV_AT_EPOCH":3119,"BSTAR":0.00058533,"MEAN_MOTION_DOT":8.399e-5,"MEAN_MOTION_DDOT":0},{"OBJECT_NAME":"STARLINK-35250","OBJECT_ID":"2025-207M","EPOCH":"2026-03-29T03:48:56.780928","MEAN_MOTION":15.05661948,"ECCENTRICITY":5.37e-5,"INCLINATION":97.602,"RA_OF_ASC_NODE":157.8981,"ARG_OF_PERICENTER":148.916,"MEAN_ANOMALY":211.2099,"EPHEMERIS_TYPE":0,"CLASSIFICATION_TYPE":"U","NORAD_CAT_ID":65603,"ELEMENT_SET_NO":999,"REV_AT_EPOCH":3119,"BSTAR":0.00064407,"MEAN_MOTION_DOT":9.248e-5,"MEAN_MOTION_DDOT":0},{"OBJECT_NAME":"STARLINK-35251","OBJECT_ID":"2025-207N","EPOCH":"2026-03-29T04:20:50.166816","MEAN_MOTION":15.05662627,"ECCENTRICITY":7.37e-5,"INCLINATION":97.6031,"RA_OF_ASC_NODE":157.8675,"ARG_OF_PERICENTER":163.9268,"MEAN_ANOMALY":196.1982,"EPHEMERIS_TYPE":0,"CLASSIFICATION_TYPE":"U","NORAD_CAT_ID":65604,"ELEMENT_SET_NO":999,"REV_AT_EPOCH":3119,"BSTAR":0.00047951,"MEAN_MOTION_DOT":6.867e-5,"MEAN_MOTION_DDOT":0},{"OBJECT_NAME":"STARLINK-35171","OBJECT_ID":"2025-207P","EPOCH":"2026-03-29T04:00:54.021888","MEAN_MOTION":15.05645982,"ECCENTRICITY":4.56e-5,"INCLINATION":97.6024,"RA_OF_ASC_NODE":157.8862,"ARG_OF_PERICENTER":121.5849,"MEAN_ANOMALY":238.5422,"EPHEMERIS_TYPE":0,"CLASSIFICATION_TYPE":"U","NORAD_CAT_ID":65605,"ELEMENT_SET_NO":999,"REV_AT_EPOCH":3103,"BSTAR":0.00017417,"MEAN_MOTION_DOT":2.453e-5,"MEAN_MOTION_DDOT":0},{"OBJECT_NAME":"STARLINK-35195","OBJECT_ID":"2025-207Q","EPOCH":"2026-03-29T03:25:01.244928","MEAN_MOTION":15.05655824,"ECCENTRICITY":4.76e-5,"INCLINATION":97.6038,"RA_OF_ASC_NODE":157.9212,"ARG_OF_PERICENTER":222.9345,"MEAN_ANOMALY":137.1845,"EPHEMERIS_TYPE":0,"CLASSIFICATION_TYPE":"U","NORAD_CAT_ID":65606,"ELEMENT_SET_NO":999,"REV_AT_EPOCH":3119,"BSTAR":0.00032161,"MEAN_MOTION_DOT":4.583e-5,"MEAN_MOTION_DDOT":0},{"OBJECT_NAME":"STARLINK-35156","OBJECT_ID":"2025-207R","EPOCH":"2026-03-29T03:32:58.293024","MEAN_MOTION":15.05699264,"ECCENTRICITY":8.57e-5,"INCLINATION":97.6034,"RA_OF_ASC_NODE":157.914,"ARG_OF_PERICENTER":140.9931,"MEAN_ANOMALY":219.1357,"EPHEMERIS_TYPE":0,"CLASSIFICATION_TYPE":"U","NORAD_CAT_ID":65607,"ELEMENT_SET_NO":999,"REV_AT_EPOCH":3119,"BSTAR":0.0012054,"MEAN_MOTION_DOT":0.00017398,"MEAN_MOTION_DDOT":0},{"OBJECT_NAME":"STARLINK-35185","OBJECT_ID":"2025-207S","EPOCH":"2026-03-29T04:08:53.083104","MEAN_MOTION":15.05684124,"ECCENTRICITY":8.76e-5,"INCLINATION":97.6026,"RA_OF_ASC_NODE":157.8792,"ARG_OF_PERICENTER":168.5865,"MEAN_ANOMALY":191.5382,"EPHEMERIS_TYPE":0,"CLASSIFICATION_TYPE":"U","NORAD_CAT_ID":65608,"ELEMENT_SET_NO":999,"REV_AT_EPOCH":3119,"BSTAR":0.00090352,"MEAN_MOTION_DOT":0.00013012,"MEAN_MOTION_DDOT":0},{"OBJECT_NAME":"STARLINK-35053","OBJECT_ID":"2025-207T","EPOCH":"2026-03-29T03:44:57.562656","MEAN_MOTION":15.05656369,"ECCENTRICITY":5.83e-5,"INCLINATION":97.6022,"RA_OF_ASC_NODE":157.9017,"ARG_OF_PERICENTER":153.2601,"MEAN_ANOMALY":206.8656,"EPHEMERIS_TYPE":0,"CLASSIFICATION_TYPE":"U","NORAD_CAT_ID":65609,"ELEMENT_SET_NO":999,"REV_AT_EPOCH":3103,"BSTAR":0.00040114,"MEAN_MOTION_DOT":5.733e-5,"MEAN_MOTION_DDOT":0},{"OBJECT_NAME":"STARLINK-35178","OBJECT_ID":"2025-207U","EPOCH":"2026-03-29T04:24:48.483936","MEAN_MOTION":15.05644411,"ECCENTRICITY":0.0001299,"INCLINATION":97.6038,"RA_OF_ASC_NODE":157.8642,"ARG_OF_PERICENTER":109.4,"MEAN_ANOMALY":250.7367,"EPHEMERIS_TYPE":0,"CLASSIFICATION_TYPE":"U","NORAD_CAT_ID":65610,"ELEMENT_SET_NO":999,"REV_AT_EPOCH":3119,"BSTAR":-0.00076494,"MEAN_MOTION_DOT":-0.00011079,"MEAN_MOTION_DDOT":0},{"OBJECT_NAME":"STARLINK-35186","OBJECT_ID":"2025-207V","EPOCH":"2026-03-29T04:56:42.863424","MEAN_MOTION":15.05663705,"ECCENTRICITY":5.81e-5,"INCLINATION":97.6044,"RA_OF_ASC_NODE":157.8357,"ARG_OF_PERICENTER":220.5845,"MEAN_ANOMALY":139.5339,"EPHEMERIS_TYPE":0,"CLASSIFICATION_TYPE":"U","NORAD_CAT_ID":65611,"ELEMENT_SET_NO":999,"REV_AT_EPOCH":3119,"BSTAR":0.00051297,"MEAN_MOTION_DOT":7.351e-5,"MEAN_MOTION_DDOT":0},{"OBJECT_NAME":"STARLINK-35154","OBJECT_ID":"2025-207W","EPOCH":"2026-03-29T03:36:58.878144","MEAN_MOTION":15.05662719,"ECCENTRICITY":2.25e-5,"INCLINATION":97.6031,"RA_OF_ASC_NODE":157.9101,"ARG_OF_PERICENTER":144.5124,"MEAN_ANOMALY":215.6118,"EPHEMERIS_TYPE":0,"CLASSIFICATION_TYPE":"U","NORAD_CAT_ID":65612,"ELEMENT_SET_NO":999,"REV_AT_EPOCH":3103,"BSTAR":0.0003957,"MEAN_MOTION_DOT":5.655e-5,"MEAN_MOTION_DDOT":0}]
